[{"OBJECT_NAME":"STARLINK-2542","OBJECT_ID":"2021-036S","EPOCH":"2026-03-09T23:25:40.269792","MEAN_MOTION":15.30185509,"ECCENTRICITY":0.00015112,"INCLINATION":53.1596,"RA_OF_ASC_NODE":73.9422,"ARG_OF_PERICENTER":92.3546,"MEAN_ANOMALY":267.7628,"EPHEMERIS_TYPE":0,"CLASSIFICATION_TYPE":"U","NORAD_CAT_ID":48292,"ELEMENT_SET_NO":999,"REV_AT_EPOCH":26845,"BSTAR":5.147429e-6,"MEAN_MOTION_DOT":-2.07e-6,"MEAN_MOTION_DDOT":0},{"OBJECT_NAME":"KUIPER-00252","OBJECT_ID":"2025-301AA","EPOCH":"2026-03-09T22:00:01.999584","MEAN_MOTION":15.32961042,"ECCENTRICITY":0.00108625,"INCLINATION":51.8682,"RA_OF_ASC_NODE":64.6463,"ARG_OF_PERICENTER":55.9089,"MEAN_ANOMALY":330.8749,"EPHEMERIS_TYPE":0,"CLASSIFICATION_TYPE":"U","NORAD_CAT_ID":67157,"ELEMENT_SET_NO":999,"REV_AT_EPOCH":542,"BSTAR":-0.017504489,"MEAN_MOTION_DOT":-0.00529484,"MEAN_MOTION_DDOT":0}]
